ONEWEB-0102             
1 47258U 20100A   25169.25478328 -.00000066  00000+0 -21844-3 0  9996
2 47258  87.8884  63.0695 0002033  78.0207 282.1149 13.12440720216990
ONEWEB-0109             
1 47259U 20100B   25169.41536242 -.00000284  00000+0 -82476-3 0  9995
2 47259  87.8885  63.0065 0002004  80.1113 280.0242 13.12441350216846
ONEWEB-0110             
1 47260U 20100C   25169.44130887 -.00000019  00000+0 -88042-4 0  9997
2 47260  87.8881  62.9852 0001893  88.0218 272.1127 13.12442684217019
ONEWEB-0111             
1 47261U 20100D   25168.93848667  .00000175  00000+0  45100-3 0  9991
2 47261  87.8884  63.1003 0001918  78.5248 281.6095 13.12440661216784
ONEWEB-0114             
1 47262U 20100E   25168.66435538 -.00000313  00000+0 -90585-3 0  9994
2 47262  87.8880  63.1545 0002183  74.5832 285.5538 13.12443059216703
ONEWEB-0117             
1 47263U 20100F   25168.65623659 -.00000473  00000+0 -13516-2 0  9992
2 47263  87.8885  63.1475 0001859  79.6838 280.4500 13.12441626216714
ONEWEB-0118             
1 47264U 20100G   25169.45105844  .00000336  00000+0  89973-3 0  9990
2 47264  87.8883  62.9902 0002024  69.2685 290.8660 13.12442700217015
ONEWEB-0119             
1 47265U 20100H   25168.94496920  .00000019  00000+0  17758-4 0  9993
2 47265  87.8884  63.1306 0001924  80.0332 280.1013 13.12440778216922
